IRIDIUM 171             
1 43929U 19002H   24210.75535796  .00000122  00000+0  36333-4 0  9991
2 43929  86.3961 281.4945 0002095  91.3136 268.8300 14.34218183290287
IRIDIUM 181             
1 56726U 23068S   24210.90498342  .00000720  00000+0  20685-3 0  9995
2 56726  86.8668 336.9800 0002229  89.0116 271.1341 14.43581865 63158
IRIDIUM 174             
1 56728U 23068U   24210.79478320  .00002422  00000+0  31527-3 0  9996
2 56728  86.1981 295.7140 0002532  90.9208 269.2303 14.80234474 64531
IRIDIUM 178             
1 56729U 23068V   24210.78936885  .00002431  00000+0  31646-3 0  9993
2 56729  86.5800 315.1547 0002711  90.7295 269.4237 14.80236739 64531
IRIDIUM 179             
1 56730U 23068W   24210.71632941  .00000888  00000+0  11338-3 0  9994
2 56730  86.6811 319.8431 0002224  96.6879 263.4596 14.80235678 64523
